[{"OBJECT_NAME":"ONEWEB-0556","OBJECT_ID":"2023-029C","EPOCH":"2026-03-09T16:35:22.298784","MEAN_MOTION":13.20771418,"ECCENTRICITY":8.93e-5,"INCLINATION":87.9159,"RA_OF_ASC_NODE":294.3463,"ARG_OF_PERICENTER":113.7539,"MEAN_ANOMALY":246.3688,"EPHEMERIS_TYPE":0,"CLASSIFICATION_TYPE":"U","NORAD_CAT_ID":55798,"ELEMENT_SET_NO":999,"REV_AT_EPOCH":14801,"BSTAR":-0.00030786713,"MEAN_MOTION_DOT":-1.12e-6,"MEAN_MOTION_DDOT":0},{"OBJECT_NAME":"CZ-4 DEB","OBJECT_ID":"1990-081AA","EPOCH":"2026-03-09T15:02:51.533376","MEAN_MOTION":13.62024845,"ECCENTRICITY":0.0231608,"INCLINATION":98.9337,"RA_OF_ASC_NODE":269.7228,"ARG_OF_PERICENTER":100.3745,"MEAN_ANOMALY":306.18,"EPHEMERIS_TYPE":0,"CLASSIFICATION_TYPE":"U","NORAD_CAT_ID":20862,"ELEMENT_SET_NO":999,"REV_AT_EPOCH":75963,"BSTAR":0.00036822,"MEAN_MOTION_DOT":3.02e-6,"MEAN_MOTION_DDOT":0}]
